     2.100          NAVIGATION                              RINEX VERSION / TYPE
fic2rin                                 12/24/2016 00:25:12 PGM / RUN BY / DATE
                                                            END OF HEADER
16 16 12 24  0  0  0.0  .205179676414D-04  .136424205266D-11  .000000000000D+00
     .510000000000D+02 -.460312500000D+02  .399766651886D-08  .255332338017D-01
    -.242143869400D-05  .890624197200D-02  .465847551823D-05  .515362006950D+04
     .518400000000D+06  .409781932831D-07 -.166265410577D+01  .800937414169D-07
     .990149788444D+00  .302250000000D+03  .382871949982D+00 -.806926468869D-08
    -.308227124611D-09  .100000000000D+01  .192800000000D+04  .000000000000D+00
     .240000000000D+01  .000000000000D+00 -.102445483208D-07  .510000000000D+02
     .511206000000D+06  .400000000000D+01
17 16 12 24  0  0  0.0 -.196268316358D-03  .102318153949D-11  .000000000000D+00
     .410000000000D+02 -.371250000000D+02  .402659629533D-08 -.103102845066D+01
    -.185146927834D-05  .115813037846D-01  .993162393570D-05  .515355603409D+04
     .518400000000D+06 -.279396772385D-07 -.643203813461D+00  .281259417534D-06
     .978702223333D+00  .199687500000D+03 -.189055262924D+01 -.790461497323D-08
     .664313385605D-10  .100000000000D+01  .192800000000D+04  .000000000000D+00
     .240000000000D+01  .000000000000D+00 -.107102096081D-07  .410000000000D+02
     .511206000000D+06  .400000000000D+01
18 16 12 24  0  0  0.0  .586387235671D-03  .295585778076D-11  .000000000000D+00
     .580000000000D+02 -.309687500000D+02  .566880755716D-08  .570715666724D+00
    -.162608921528D-05  .173628723715D-01  .659562647343D-05  .515372841454D+04
     .518400000000D+06 -.271946191788D-06  .136447517205D+01 -.502914190292D-07
     .924864497347D+00  .236625000000D+03 -.184358527273D+01 -.887036948649D-08
    -.278940190407D-09  .100000000000D+01  .192800000000D+04  .000000000000D+00
     .240000000000D+01  .000000000000D+00 -.111758708954D-07  .580000000000D+02
     .511206000000D+06  .400000000000D+01
19 16 12 24  0  0  0.0 -.517414882779D-03  .795807864051D-12  .000000000000D+00
     .460000000000D+02 -.439375000000D+02  .396373653411D-08  .215820072744D+01
    -.253878533840D-05  .102209500037D-01  .102035701275D-04  .515364543152D+04
     .518400000000D+06 -.707805156708D-07 -.594994587250D+00 -.167638063431D-06
     .975917352498D+00  .193031250000D+03  .899216778502D+00 -.768639159763D-08
     .921466954226D-10  .100000000000D+01  .192800000000D+04  .000000000000D+00
     .240000000000D+01  .000000000000D+00 -.149011611938D-07  .460000000000D+02
     .511206000000D+06  .400000000000D+01
20 16 12 24  0  0  0.0  .452183187008D-03  .181898940355D-11  .000000000000D+00
     .610000000000D+02 -.296562500000D+02  .547951395804D-08 -.184278804674D+01
    -.131689012051D-05  .474969425704D-02  .602193176746D-05  .515361037445D+04
     .518400000000D+06  .670552253723D-07  .131292360081D+01  .521540641785D-07
     .926205748919D+00  .240125000000D+03  .151834049371D+01 -.849963975840D-08
    -.114647632677D-09  .100000000000D+01  .192800000000D+04  .000000000000D+00
     .240000000000D+01  .000000000000D+00 -.838190317154D-08  .610000000000D+02
     .511206000000D+06  .400000000000D+01
21 16 12 24  0  0  0.0 -.527817755938D-03  .125055521494D-11  .000000000000D+00
     .100000000000D+03 -.656250000000D+00  .514414284563D-08  .149229182852D+01
    -.491738319397D-06  .235787173733D-01  .719912350178D-05  .515376843452D+04
     .518400000000D+06 -.262632966042D-06  .323340764806D+00 -.581145286560D-06
     .938494015014D+00  .232625000000D+03 -.173085574015D+01 -.842463663422D-08
     .372515516767D-09  .100000000000D+01  .192800000000D+04  .000000000000D+00
     .485000000000D+01  .000000000000D+00 -.977888703346D-08  .100000000000D+03
     .511206000000D+06  .400000000000D+01
22 16 12 24  0  0  0.0  .153190921992D-03 -.111413100967D-10  .000000000000D+00
     .490000000000D+02 -.264687500000D+02  .553237330270D-08 -.148309963982D+01
    -.119954347610D-05  .729850935750D-02  .645965337753D-05  .515363270760D+04
     .518400000000D+06  .949949026108D-07  .136467116211D+01  .199303030968D-06
     .922846630072D+00  .231500000000D+03 -.183108628645D+01 -.850678291308D-08
    -.152863510236D-09  .100000000000D+01  .192800000000D+04  .000000000000D+00
     .240000000000D+01  .000000000000D+00 -.176951289177D-07  .490000000000D+02
     .511206000000D+06  .400000000000D+01
23 16 12 24  0  0  0.0 -.200620852411D-03 -.113686837722D-11  .000000000000D+00
     .480000000000D+02  .450312500000D+02  .473591155544D-08 -.217580624578D+01
     .200979411602D-05  .111462440109D-01  .992976129055D-05  .515356850815D+04
     .518400000000D+06  .100582838058D-06  .244594915912D+01 -.108033418655D-06
     .944966612670D+00  .179281250000D+03 -.251866908036D+01 -.791890128260D-08
     .385730352932D-10  .100000000000D+01  .192800000000D+04  .000000000000D+00
     .240000000000D+01  .000000000000D+00 -.200234353542D-07  .480000000000D+02
     .511206000000D+06  .400000000000D+01
24 16 12 24  0  0  0.0 -.279950909317D-04 -.568434188608D-12  .000000000000D+00
     .170000000000D+02  .856875000000D+02  .496056377025D-08 -.281374173283D+01
     .433810055256D-05  .524633855093D-02  .559911131859D-05  .515371235085D+04
     .518400000000D+06 -.100582838058D-06 -.281317011368D+01 -.117346644402D-06
     .947425286420D+00  .265656250000D+03  .416390558692D+00 -.832784688825D-08
     .182150444440D-09  .100000000000D+01  .192800000000D+04  .000000000000D+00
     .240000000000D+01  .000000000000D+00  .232830643654D-08  .170000000000D+02
     .511206000000D+06  .400000000000D+01
27 16 12 24  0  0  0.0  .183605588973D-03  .545696821064D-11  .000000000000D+00
     .630000000000D+02 -.457187500000D+02  .400730977768D-08 -.873847214513D+00
    -.243261456490D-05  .407250202261D-02  .951997935772D-05  .515366127205D+04
     .518400000000D+06  .111758708954D-06 -.694319544830D+00 -.484287738800D-07
     .973598154820D+00  .205156250000D+03  .289392820361D+00 -.779961059937D-08
    -.171435712414D-10  .100000000000D+01  .192800000000D+04  .000000000000D+00
     .240000000000D+01  .000000000000D+00  .139698386192D-08  .630000000000D+02
     .511206000000D+06  .400000000000D+01
28 16 12 24  0  0  0.0  .576647929847D-03  .284217094304D-11  .000000000000D+00
     .690000000000D+02 -.485937500000D+02  .411195699380D-08 -.897387348242D-01
    -.249780714512D-05  .201272249687D-01  .577233731747D-05  .515363768959D+04
     .518400000000D+06 -.257045030594D-06 -.165792477835D+01  .484287738800D-07
     .988905664393D+00  .286437500000D+03 -.158938165647D+01 -.835820529566D-08
    -.286797660559D-09  .100000000000D+01  .192800000000D+04  .000000000000D+00
     .240000000000D+01  .000000000000D+00 -.111758708954D-07  .690000000000D+02
     .511206000000D+06  .400000000000D+01
29 16 12 24  0  0  0.0  .637146178633D-03 -.216004991671D-11  .000000000000D+00
     .180000000000D+02 -.505625000000D+02  .390837708531D-08  .132971969683D+01
    -.266730785370D-05  .543047208339D-03  .940822064877D-05  .515370219421D+04
     .518400000000D+06  .167638063431D-07 -.633261257508D+00  .242143869400D-07
     .979759049983D+00  .208156250000D+03 -.207523458356D+00 -.769603485646D-08
     .646455498895D-10  .100000000000D+01  .192800000000D+04  .000000000000D+00
     .240000000000D+01  .000000000000D+00 -.102445483208D-07  .180000000000D+02
     .511206000000D+06  .400000000000D+01
30 16 12 24  0  0  0.0  .159546267241D-03  .568434188608D-12  .000000000000D+00
     .640000000000D+02  .706875000000D+02  .505378193887D-08  .255257782445D+01
     .369735062122D-05  .235382991377D-02  .440888106823D-05  .515373490524D+04
     .518400000000D+06 -.745058059692D-07 -.272127045136D+01  .130385160446D-07
     .950103977199D+00  .290375000000D+03  .312351160202D+01 -.843928010132D-08
     .160006664920D-09  .100000000000D+01  .192800000000D+04  .000000000000D+00
     .240000000000D+01  .000000000000D+00  .372529029846D-08  .640000000000D+02
     .511206000000D+06  .400000000000D+01
31 16 12 24  0  0  0.0  .229310709983D-03 -.216004991671D-11  .000000000000D+00
     .890000000000D+02  .769375000000D+02  .452233123039D-08  .238647513893D+01
     .416487455368D-05  .854860350955D-02  .521168112755D-05  .515362269020D+04
     .518400000000D+06  .186264514923D-08 -.275213857728D+01  .245869159698D-06
     .969138451981D+00  .284281250000D+03 -.326412184721D+00 -.811390940547D-08
     .892894335490D-10  .100000000000D+01  .192800000000D+04  .000000000000D+00
     .240000000000D+01  .000000000000D+00 -.135041773319D-07  .890000000000D+02
     .511206000000D+06  .400000000000D+01
32 16 12 24  0  0  0.0 -.252917408943D-03 -.155750967679D-10  .000000000000D+00
     .420000000000D+02  .343437500000D+02  .448447251057D-08 -.146384397475D+00
     .183098018169D-05  .610068789683D-03  .102873891592D-04  .515368173599D+04
     .518400000000D+06 -.931322574615D-08  .244510807924D+01  .745058059692D-08
     .958611091600D+00  .181343750000D+03 -.270776578204D+01 -.790604360416D-08
    -.107147320259D-09  .100000000000D+01  .192800000000D+04  .000000000000D+00
     .240000000000D+01  .000000000000D+00  .465661287308D-09  .420000000000D+02
     .511206000000D+06  .400000000000D+01
21 16 12 23 23 59 44.0 -.527815427631D-03  .125055521494D-11  .000000000000D+00
     .000000000000D+00 -.656250000000D+00  .514450000336D-08  .148995816697D+01
    -.491738319397D-06  .235787159763D-01  .719912350178D-05  .515376843071D+04
     .518384000000D+06 -.262632966042D-06  .323340887692D+00 -.579282641411D-06
     .938494004774D+00  .232625000000D+03 -.173085569041D+01 -.842463663422D-08
     .372515516767D-09  .100000000000D+01  .192800000000D+04  .000000000000D+00
     .240000000000D+01  .000000000000D+00 -.977888703346D-08  .000000000000D+00
     .513606000000D+06  .400000000000D+01
